start=new Date('2022-05-09T00:00:00.000Z').valueOf();
sats=[{"EPHEMERIS_TYPE":"0","ARG_OF_PERICENTER":"41.8151","MEAN_MOTION":"15.08826220","MEAN_MOTION_DDOT":"0.0000000000000","LAUNCH_DATE":"2022-02-25","MEAN_ANOMALY":"252.0118","DECAY_DATE":null,"TIME_SYSTEM":"UTC","TLE_LINE1":"1 51802U 22017AL  22128.58334491  .00027711  00000-0  17530-2 0  9996","BSTAR":"0.00175300000000","OBJECT_TYPE":"PAYLOAD","RA_OF_ASC_NODE":"158.9162","PERIOD":"95.438","MEAN_MOTION_DOT":"0.00027711","CENTER_NAME":"EARTH","RCS_SIZE":"LARGE","INCLINATION":"53.2188","GP_ID":"203018911","MEAN_ELEMENT_THEORY":"SGP4","NORAD_CAT_ID":"51802","CLASSIFICATION_TYPE":"U","COUNTRY_CODE":"US","SITE":"AFWTR","EPOCH":"2022-05-08T14:00:01.000224","APOAPSIS":"541.161","FILE":"3435746","REF_FRAME":"TEME","OBJECT_ID":"2022-017AL","SEMIMAJOR_AXIS":"6917.923","ECCENTRICITY":"0.00019860","OBJECT_NAME":"STARLINK-3557","PERIAPSIS":"538.414","ELEMENT_SET_NO":"999","TLE_LINE2":"2 51802  53.2188 158.9162 0001986  41.8151 252.0118 15.08826220  3625","REV_AT_EPOCH":"362"},{"TLE_LINE1":"1 51803U 22017AM  22128.83334491 -.00002123  00000-0 -11534-3 0  9996","TIME_SYSTEM":"UTC","DECAY_DATE":null,"BSTAR":"-0.00011534000000","OBJECT_TYPE":"PAYLOAD","CENTER_NAME":"EARTH","PERIOD":"95.438","MEAN_MOTION_DOT":"-0.00002123","RA_OF_ASC_NODE":"157.8092","GP_ID":"203019639","INCLINATION":"53.2121","RCS_SIZE":"LARGE","EPHEMERIS_TYPE":"0","ARG_OF_PERICENTER":"45.4731","MEAN_MOTION":"15.08835773","LAUNCH_DATE":"2022-02-25","MEAN_MOTION_DDOT":"0.0000000000000","MEAN_ANOMALY":"332.3563","FILE":"3435775","EPOCH":"2022-05-08T20:00:01.000224","APOAPSIS":"541.105","SEMIMAJOR_AXIS":"6917.893","OBJECT_ID":"2022-017AM","REF_FRAME":"TEME","PERIAPSIS":"538.411","ELEMENT_SET_NO":"999","OBJECT_NAME":"STARLINK-3544","ECCENTRICITY":"0.00019470","TLE_LINE2":"2 51803  53.2121 157.8092 0001947  45.4731 332.3563 15.08835773 12432","REV_AT_EPOCH":"1243","MEAN_ELEMENT_THEORY":"SGP4","NORAD_CAT_ID":"51803","CLASSIFICATION_TYPE":"U","SITE":"AFWTR","COUNTRY_CODE":"US"},{"REF_FRAME":"TEME","SEMIMAJOR_AXIS":"6743.432","OBJECT_ID":"2022-017AN","APOAPSIS":"366.085","EPOCH":"2022-05-08T20:00:01.000224","FILE":"3435773","REV_AT_EPOCH":"1264","TLE_LINE2":"2 51804  53.2174 146.3995 0001168  60.8099  34.2992 15.67766180 12646","OBJECT_NAME":"STARLINK-3601","ECCENTRICITY":"0.00011680","ELEMENT_SET_NO":"999","PERIAPSIS":"364.509","NORAD_CAT_ID":"51804","CLASSIFICATION_TYPE":"U","MEAN_ELEMENT_THEORY":"SGP4","SITE":"AFWTR","COUNTRY_CODE":"US","OBJECT_TYPE":"PAYLOAD","BSTAR":"-0.00695490000000","DECAY_DATE":null,"TLE_LINE1":"1 51804U 22017AN  22128.83334491 -.00714367  00000-0 -69549-2 0  9995","TIME_SYSTEM":"UTC","GP_ID":"203019619","INCLINATION":"53.2174","RCS_SIZE":"LARGE","PERIOD":"91.850","MEAN_MOTION_DOT":"-0.00714367","RA_OF_ASC_NODE":"146.3995","CENTER_NAME":"EARTH","ARG_OF_PERICENTER":"60.8099","EPHEMERIS_TYPE":"0","MEAN_ANOMALY":"34.2992","LAUNCH_DATE":"2022-02-25","MEAN_MOTION_DDOT":"0.0000000000000","MEAN_MOTION":"15.67766180"},{"EPOCH":"2022-05-08T20:00:01.000224","APOAPSIS":"366.030","FILE":"3435777","REF_FRAME":"TEME","SEMIMAJOR_AXIS":"6743.397","OBJECT_ID":"2022-017AP","OBJECT_NAME":"STARLINK-3605","ECCENTRICITY":"0.00011390","ELEMENT_SET_NO":"999","PERIAPSIS":"364.494","TLE_LINE2":"2 51805  53.2173 146.3432 0001139  61.4296  22.7236 15.67778304 12640","REV_AT_EPOCH":"1264","MEAN_ELEMENT_THEORY":"SGP4","CLASSIFICATION_TYPE":"U","NORAD_CAT_ID":"51805","SITE":"AFWTR","COUNTRY_CODE":"US","DECAY_DATE":null,"TLE_LINE1":"1 51805U 22017AP  22128.83334491 -.00714632  00000-0 -69543-2 0  9995","TIME_SYSTEM":"UTC","BSTAR":"-0.00695430000000","OBJECT_TYPE":"PAYLOAD","MEAN_MOTION_DOT":"-0.00714632","PERIOD":"91.850","RA_OF_ASC_NODE":"146.3432","CENTER_NAME":"EARTH","GP_ID":"203019659","INCLINATION":"53.2173","RCS_SIZE":"LARGE","EPHEMERIS_TYPE":"0","ARG_OF_PERICENTER":"61.4296","MEAN_MOTION":"15.67778304","MEAN_MOTION_DDOT":"0.0000000000000","LAUNCH_DATE":"2022-02-25","MEAN_ANOMALY":"22.7236"},{"TIME_SYSTEM":"UTC","TLE_LINE1":"1 51806U 22017AQ  22128.58334491 -.00718685  00000-0 -19895-1 0  9994","DECAY_DATE":null,"OBJECT_TYPE":"PAYLOAD","BSTAR":"-0.01989500000000","CENTER_NAME":"EARTH","RA_OF_ASC_NODE":"150.8857","PERIOD":"93.572","MEAN_MOTION_DOT":"-0.00718685","RCS_SIZE":"LARGE","GP_ID":"203019249","INCLINATION":"53.2174","EPHEMERIS_TYPE":"0","ARG_OF_PERICENTER":"40.0341","MEAN_MOTION":"15.38918407","MEAN_MOTION_DDOT":"0.0000000000000","LAUNCH_DATE":"2022-02-25","MEAN_ANOMALY":"308.4159","FILE":"3435746","APOAPSIS":"450.370","EPOCH":"2022-05-08T14:00:01.000224","OBJECT_ID":"2022-017AQ","SEMIMAJOR_AXIS":"6827.443","REF_FRAME":"TEME","PERIAPSIS":"448.247","ELEMENT_SET_NO":"999","ECCENTRICITY":"0.00015550","OBJECT_NAME":"STARLINK-3581","REV_AT_EPOCH":"367","TLE_LINE2":"2 51806  53.2174 150.8857 0001555  40.0341 308.4159 15.38918407  3678","MEAN_ELEMENT_THEORY":"SGP4","NORAD_CAT_ID":"51806","CLASSIFICATION_TYPE":"U","COUNTRY_CODE":"US","SITE":"AFWTR"},{"OBJECT_NAME":"STARLINK-3606","ECCENTRICITY":"0.00014100","ELEMENT_SET_NO":"999","PERIAPSIS":"449.504","REV_AT_EPOCH":"367","TLE_LINE2":"2 51807  53.2173 150.8689 0001410  46.8255 289.1786 15.38526733  3677","APOAPSIS":"451.430","EPOCH":"2022-05-08T14:00:01.000224","FILE":"3435746","REF_FRAME":"TEME","SEMIMAJOR_AXIS":"6828.602","OBJECT_ID":"2022-017AR","SITE":"AFWTR","COUNTRY_CODE":"US","MEAN_ELEMENT_THEORY":"SGP4","NORAD_CAT_ID":"51807","CLASSIFICATION_TYPE":"U","RA_OF_ASC_NODE":"150.8689","PERIOD":"93.596","MEAN_MOTION_DOT":"-0.00718663","CENTER_NAME":"EARTH","INCLINATION":"53.2173","GP_ID":"203019172","RCS_SIZE":"LARGE","DECAY_DATE":null,"TLE_LINE1":"1 51807U 22017AR  22128.58334491 -.00718663  00000-0 -20153-1 0  9990","TIME_SYSTEM":"UTC","BSTAR":"-0.02015300000000","OBJECT_TYPE":"PAYLOAD","MEAN_MOTION":"15.38526733","MEAN_MOTION_DDOT":"0.0000000000000","LAUNCH_DATE":"2022-02-25","MEAN_ANOMALY":"289.1786","EPHEMERIS_TYPE":"0","ARG_OF_PERICENTER":"46.8255"},{"CENTER_NAME":"EARTH","RA_OF_ASC_NODE":"150.9029","PERIOD":"93.548","MEAN_MOTION_DOT":"-0.00718298","INCLINATION":"53.2174","GP_ID":"203019334","RCS_SIZE":"LARGE","TLE_LINE1":"1 51808U 22017AS  22128.58334491 -.00718298  00000-0 -19626-1 0  9998","TIME_SYSTEM":"UTC","DECAY_DATE":null,"OBJECT_TYPE":"PAYLOAD","BSTAR":"-0.01962600000000","MEAN_MOTION":"15.39314101","LAUNCH_DATE":"2022-02-25","MEAN_ANOMALY":"317.8267","MEAN_MOTION_DDOT":"0.0000000000000","EPHEMERIS_TYPE":"0","ARG_OF_PERICENTER":"42.4059","PERIAPSIS":"447.147","ELEMENT_SET_NO":"999","OBJECT_NAME":"STARLINK-3609","ECCENTRICITY":"0.00014520","TLE_LINE2":"2 51808  53.2174 150.9029 0001452  42.4059 317.8267 15.39314101  3676","REV_AT_EPOCH":"367","FILE":"3435746","EPOCH":"2022-05-08T14:00:01.000224","APOAPSIS":"449.130","SEMIMAJOR_AXIS":"6826.273","OBJECT_ID":"2022-017AS","REF_FRAME":"TEME","SITE":"AFWTR","COUNTRY_CODE":"US","MEAN_ELEMENT_THEORY":"SGP4","CLASSIFICATION_TYPE":"U","NORAD_CAT_ID":"51808"},{"NORAD_CAT_ID":"51809","CLASSIFICATION_TYPE":"U","MEAN_ELEMENT_THEORY":"SGP4","SITE":"AFWTR","COUNTRY_CODE":"US","REF_FRAME":"TEME","SEMIMAJOR_AXIS":"6829.150","OBJECT_ID":"2022-017AT","APOAPSIS":"452.224","EPOCH":"2022-05-08T20:00:01.000224","FILE":"3436109","REV_AT_EPOCH":"1255","TLE_LINE2":"2 51809  53.2176 149.7028 0001771  36.1149 251.4611 15.38341727 12554","OBJECT_NAME":"STARLINK-3607","ECCENTRICITY":"0.00017710","PERIAPSIS":"449.805","ELEMENT_SET_NO":"999","ARG_OF_PERICENTER":"36.1149","EPHEMERIS_TYPE":"0","LAUNCH_DATE":"2022-02-25","MEAN_MOTION_DDOT":"0.0000000000000","MEAN_ANOMALY":"251.4611","MEAN_MOTION":"15.38341727","BSTAR":"-0.02027400000000","OBJECT_TYPE":"PAYLOAD","DECAY_DATE":null,"TLE_LINE1":"1 51809U 22017AT  22128.83334491 -.00718656  00000-0 -20274-1 0  9996","TIME_SYSTEM":"UTC","GP_ID":"203028130","INCLINATION":"53.2176","RCS_SIZE":"LARGE","PERIOD":"93.607","RA_OF_ASC_NODE":"149.7028","MEAN_MOTION_DOT":"-0.00718656","CENTER_NAME":"EARTH"},{"TLE_LINE1":"1 51810U 22017AU  22128.83334491 -.00714493  00000-0 -69585-2 0  9992","TIME_SYSTEM":"UTC","DECAY_DATE":null,"OBJECT_TYPE":"PAYLOAD","BSTAR":"-0.00695850000000","CENTER_NAME":"EARTH","PERIOD":"91.851","MEAN_MOTION_DOT":"-0.00714493","RA_OF_ASC_NODE":"146.3676","INCLINATION":"53.2174","GP_ID":"203019685","RCS_SIZE":"LARGE","EPHEMERIS_TYPE":"0","ARG_OF_PERICENTER":"65.0579","MEAN_MOTION":"15.67758660","MEAN_MOTION_DDOT":"0.0000000000000","LAUNCH_DATE":"2022-02-25","MEAN_ANOMALY":"24.5718","FILE":"3435778","EPOCH":"2022-05-08T20:00:01.000224","APOAPSIS":"366.066","SEMIMAJOR_AXIS":"6743.454","OBJECT_ID":"2022-017AU","REF_FRAME":"TEME","ELEMENT_SET_NO":"999","PERIAPSIS":"364.571","OBJECT_NAME":"STARLINK-3613","ECCENTRICITY":"0.00011080","REV_AT_EPOCH":"1259","TLE_LINE2":"2 51810  53.2174 146.3676 0001108  65.0579  24.5718 15.67758660 12599","MEAN_ELEMENT_THEORY":"SGP4","CLASSIFICATION_TYPE":"U","NORAD_CAT_ID":"51810","SITE":"AFWTR","COUNTRY_CODE":"US"},{"SITE":"AFWTR","COUNTRY_CODE":"US","MEAN_ELEMENT_THEORY":"SGP4","CLASSIFICATION_TYPE":"U","NORAD_CAT_ID":"51811","ELEMENT_SET_NO":"999","PERIAPSIS":"447.751","OBJECT_NAME":"STARLINK-3569","ECCENTRICITY":"0.00014240","REV_AT_EPOCH":"367","TLE_LINE2":"2 51811  53.2174 150.8943 0001424  45.0664 309.3210 15.39116234  3675","FILE":"3435746","EPOCH":"2022-05-08T14:00:01.000224","APOAPSIS":"449.696","SEMIMAJOR_AXIS":"6826.858","OBJECT_ID":"2022-017AV","REF_FRAME":"TEME","MEAN_MOTION":"15.39116234","MEAN_MOTION_DDOT":"0.0000000000000","LAUNCH_DATE":"2022-02-25","MEAN_ANOMALY":"309.3210","EPHEMERIS_TYPE":"0","ARG_OF_PERICENTER":"45.0664","CENTER_NAME":"EARTH","PERIOD":"93.560","MEAN_MOTION_DOT":"-0.00718442","RA_OF_ASC_NODE":"150.8943","GP_ID":"203018834","INCLINATION":"53.2174","RCS_SIZE":"LARGE","TLE_LINE1":"1 51811U 22017AV  22128.58334491 -.00718442  00000-0 -19759-1 0  9990","TIME_SYSTEM":"UTC","DECAY_DATE":null,"BSTAR":"-0.01975900000000","OBJECT_TYPE":"PAYLOAD"}];
